CCSDS_OEM_VERS = 2.0
CREATION_DATE = 2024-10-06T11:00:54.640000000
ORIGINATOR = NONE

META_START
OBJECT_NAME = _SCPACE_OEM
OBJECT_ID = 1
CENTER_NAME = EARTH
REF_FRAME = EME2000
TIME_SYSTEM = UTC
START_TIME = 2024-10-05T00:00:00.000000000
STOP_TIME = 2024-10-06T08:00:00.000000000
INTERPOLATION = LAGRANGE
INTERPOLATION_DEGREE = 8
META_STOP

2024-10-05T00:00:00.000000000  5.684748652514228e+03  3.481765197664458e+03  2.302266106020801e+03  2.659480628775725e+00  3.255320187386190e-01 -7.026350280964729e+00
2024-10-05T00:01:00.000000000  5.832578553279193e+03  3.494160500220775e+03  1.876250566092094e+03  2.266501324859673e+00  8.750494412168516e-02 -7.169303345795887e+00
2024-10-05T00:02:00.000000000  5.956543890114464e+03  3.492258868297239e+03  1.442537703957498e+03  1.864269473343141e+00 -1.508681638470783e-01 -7.282838371073254e+00
2024-10-05T00:03:00.000000000  6.056139233943057e+03  3.476069069389242e+03  1.002907164422073e+03  1.454447763435890e+00 -3.886030370295882e-01 -7.366489191206634e+00
2024-10-05T00:04:00.000000000  6.130959834311045e+03  3.445658901468051e+03  5.591631550953476e+02  1.038731648377415e+00 -6.247171754958570e-01 -7.419915596070577e+00
2024-10-05T00:05:00.000000000  6.180703569287300e+03  3.401154906415527e+03  1.131258286399105e+02  6.188406529659878e-01 -8.582349091105489e-01 -7.442906112226614e+00
2024-10-05T00:06:00.000000000  6.205171956742166e+03  3.342741864180701e+03 -3.333755415854474e+02  1.965102830383506e-01 -1.088192192922733e+00 -7.435378605106890e+00
2024-10-05T00:07:00.000000000  6.204270914112766e+03  3.270661952544399e+03 -7.785104731612383e+02 -2.265158724080333e-01 -1.313641177819669e+00 -7.397378968730064e+00
2024-10-05T00:08:00.000000000  6.178011008038774e+03  3.185213561144803e+03 -1.220455348676898e+03 -6.484928534132434e-01 -1.533654220963509e+00 -7.329080344978871e+00
2024-10-05T00:09:00.000000000  6.126507458997270e+03  3.086750113627994e+03 -1.657400538835859e+03 -1.067681128981958e+00 -1.747327671550104e+00 -7.230783170555096e+00
2024-10-05T00:10:00.000000000  6.049979448967832e+03  2.975678408676996e+03 -2.087558278743382e+03 -1.482355439757862e+00 -1.953786064783257e+00 -7.102914079976344e+00
2024-10-05T00:11:00.000000000  5.948749018520906e+03  2.852456815431962e+03 -2.509170183347293e+03 -1.890813014737853e+00 -2.152185768411209e+00 -6.946023085422413e+00
2024-10-05T00:12:00.000000000  5.823239521347388e+03  2.717593273275067e+03 -2.920514484167043e+03 -2.291380785147266e+00 -2.341718469517442e+00 -6.760780206232729e+00
2024-10-05T00:13:00.000000000  5.673973716252756e+03  2.571643171828659e+03 -3.319912931675387e+03 -2.682422051874750e+00 -2.521614399161147e+00 -6.547972058524348e+00
2024-10-05T00:14:00.000000000  5.501571079038648e+03  2.415206648920484e+03 -3.705738275462178e+03 -3.062344007533178e+00 -2.691145692123530e+00 -6.308497885348419e+00
2024-10-05T00:15:00.000000000  5.306745495993209e+03  2.248926435965563e+03 -4.076420068167915e+03 -3.429603874843053e+00 -2.849629074668377e+00 -6.043365297835838e+00
2024-10-05T00:16:00.000000000  5.090301495423803e+03  2.073484719476731e+03 -4.430451459856644e+03 -3.782715995533221e+00 -2.996429050112897e+00 -5.753684341721686e+00
2024-10-05T00:17:00.000000000  4.853130882570887e+03  1.889600236140796e+03 -4.766395537035090e+03 -4.120256876886739e+00 -3.130959733927589e+00 -5.440661258938680e+00
2024-10-05T00:18:00.000000000  4.596209003358383e+03  1.698025458270828e+03 -5.082890232570416e+03 -4.440869945287941e+00 -3.252686468197184e+00 -5.105593775069162e+00
2024-10-05T00:19:00.000000000  4.320590489841634e+03  1.499543389536813e+03 -5.378653877698828e+03 -4.743270761418069e+00 -3.361127603547930e+00 -4.749865214055915e+00
2024-10-05T00:20:00.000000000  4.027404668497991e+03  1.294964224220859e+03 -5.652490360892125e+03 -5.026251481374217e+00 -3.455856055576640e+00 -4.374938391952361e+00
2024-10-05T00:21:00.000000000  3.717851016339276e+03  1.085122164843004e+03 -5.903293521438388e+03 -5.288685083231179e+00 -3.536500789288997e+00 -3.982350036605879e+00
2024-10-05T00:22:00.000000000  3.393194104087565e+03  8.708719674972269e+02 -6.130051419354971e+03 -5.529530047307120e+00 -3.602748272137408e+00 -3.573703939904725e+00
2024-10-05T00:23:00.000000000  3.054758182837541e+03  6.530853584159696e+02 -6.331850294098045e+03 -5.747833901403149e+00 -3.654343178123351e+00 -3.150663079084528e+00
2024-10-05T00:24:00.000000000  2.703922199551329e+03  4.326478080562327e+02 -6.507877527550923e+03 -5.942735340272658e+00 -3.691088563732791e+00 -2.714943095375710e+00
2024-10-05T00:25:00.000000000  2.342113774638835e+03  2.104547028372513e+02 -6.657425071159986e+03 -6.113466458552920e+00 -3.712846102908350e+00 -2.268305528349618e+00
2024-10-05T00:26:00.000000000  1.970803656536758e+03 -1.259208362634816e+01 -6.779891797574410e+03 -6.259355007642129e+00 -3.719536535336303e+00 -1.812551999753015e+00
2024-10-05T00:27:00.000000000  1.591500119384413e+03 -2.355876318310907e+02 -6.874785664479594e+03 -6.379826984399861e+00 -3.711140027155623e+00 -1.349517960437739e+00
2024-10-05T00:28:00.000000000  1.205742680390127e+03 -4.576277032566780e+02 -6.941725640699149e+03 -6.474409134784753e+00 -3.687695904456979e+00 -8.810648730077099e-01
2024-10-05T00:29:00.000000000  8.150964778300678e+02 -6.778120321060688e+02 -6.980442827506575e+03 -6.542729949973051e+00 -3.649301814097311e+00 -4.090730126958065e-01
2024-10-05T00:30:00.000000000  4.211457664697764e+02 -8.952480018146230e+02 -6.990781597446894e+03 -6.584519788983018e+00 -3.596113001981243e+00  6.456514506829766e-02
2024-10-05T00:31:00.000000000  2.548796080764146e+01 -1.109054008696340e+03 -6.972700146174607e+03 -6.599611803184592e+00 -3.528342252718732e+00  5.379505203383556e-01
2024-10-05T00:32:00.000000000 -3.702726469313941e+02 -1.318362937874936e+03 -6.926270595956866e+03 -6.587943300785199e+00 -3.446259431117830e+00  1.009184491546876e+00
2024-10-05T00:33:00.000000000 -7.645311710382742e+02 -1.522325564761702e+03 -6.851678822119430e+03 -6.549556052352594e+00 -3.350190283782452e+00  1.476376239248330e+00
2024-10-05T00:34:00.000000000 -1.155688374929600e+03 -1.720113864472457e+03 -6.749223714742642e+03 -6.484596190654106e+00 -3.240515243610357e+00  1.937649858176229e+00
2024-10-05T00:35:00.000000000 -1.542156698128139e+03 -1.910924153774739e+03 -6.619316203429828e+03 -6.393313541129063e+00 -3.117667987381107e+00  2.391151261018710e+00
2024-10-05T00:36:00.000000000 -1.922366953866869e+03 -2.093980448417182e+03 -6.462477420716772e+03 -6.276060134451675e+00 -2.982133532060273e+00  2.835055075236733e+00
2024-10-05T00:37:00.000000000 -2.294773982328005e+03 -2.268537316108678e+03 -6.279337187606635e+03 -6.133289337478042e+00 -2.834447118131003e+00  3.267569182888814e+00
2024-10-05T00:38:00.000000000 -2.657862649615697e+03 -2.433882836348152e+03 -6.070631966246180e+03 -5.965556224911492e+00 -2.675193429057775e+00  3.686941045831085e+00
2024-10-05T00:39:00.000000000 -3.010154666770587e+03 -2.589341823712068e+03 -5.837201314809034e+03 -5.773516593209341e+00 -2.505004459364262e+00  4.091467022524952e+00
2024-10-05T00:40:00.000000000 -3.350213762400306e+03 -2.734278244548033e+03 -5.579985777650008e+03 -5.557924481781797e+00 -2.324557168039487e+00  4.479498302387601e+00
2024-10-05T00:41:00.000000000 -3.676651798634782e+03 -2.868097972927553e+03 -5.300022982945726e+03 -5.319629579760058e+00 -2.134571049173963e+00  4.849447706839444e+00
2024-10-05T00:42:00.000000000 -3.988134448810356e+03 -2.990251279522099e+03 -4.998443744908853e+03 -5.059574654046703e+00 -1.935805772705969e+00  5.199796143682216e+00
2024-10-05T00:43:00.000000000 -4.283386646194628e+03 -3.100235147004321e+03 -4.676467858859454e+03 -4.778792540385838e+00 -1.729058638737520e+00  5.529098869315901e+00
2024-10-05T00:44:00.000000000 -4.561197864683390e+03 -3.197595454978985e+03 -4.335399502321243e+03 -4.478403170846971e+00 -1.515162001421801e+00  5.835991608147798e+00
2024-10-05T00:45:00.000000000 -4.820427120556132e+03 -3.281928972897540e+03 -3.976622460738729e+03 -4.159610417243768e+00 -1.294980285143671e+00  6.119197080342999e+00
2024-10-05T00:46:00.000000000 -5.060008566802106e+03 -3.352885264044003e+03 -3.601593565313703e+03 -3.823696661717594e+00 -1.069405686132533e+00  6.377532236860381e+00
2024-10-05T00:47:00.000000000 -5.278955374002116e+03 -3.410168146379715e+03 -3.211837822843889e+03 -3.472018157161393e+00 -8.393550914186720e-01  6.609912854718635e+00
2024-10-05T00:48:00.000000000 -5.476364009424811e+03 -3.453537126711637e+03 -2.808942642211692e+03 -3.106000162328435e+00 -6.057668547653233e-01  6.815358489544122e+00
2024-10-05T00:49:00.000000000 -5.651418434915966e+03 -3.482808542333062e+03 -2.394550887345756e+03 -2.727131139849840e+00 -3.695967093726261e-01  6.992997801287788e+00
2024-10-05T00:50:00.000000000 -5.803393690092464e+03 -3.497856502422645e+03 -1.970354309859981e+03 -2.336957163932768e+00 -1.318139086637341e-01  7.142072757331795e+00
2024-10-05T00:51:00.000000000 -5.931659154323882e+03 -3.498613597834205e+03 -1.538086705661048e+03 -1.937076161967241e+00  1.066027038089037e-01  7.261943275232872e+00
2024-10-05T00:52:00.000000000 -6.035681491453054e+03 -3.485071266711302e+03 -1.099516250551314e+03 -1.529130264889728e+00  3.446698301378157e-01  7.352092064075556e+00
2024-10-05T00:53:00.000000000 -6.115027028841218e+03 -3.457280009696866e+03 -6.564387655569163e+02 -1.114797863221903e+00  5.814046376663071e-01  7.412126747282644e+00
2024-10-05T00:54:00.000000000 -6.169363643051422e+03 -3.415349072869908e+03 -2.106694244359965e+02 -6.957855966525782e-01  8.158292738274462e-01  7.441780827712337e+00
2024-10-05T00:55:00.000000000 -6.198462315166209e+03 -3.359446228974264e+03  2.359640090774785e+02 -2.738225898267908e-01  1.046973950857654e+00  7.440914724509490e+00
2024-10-05T00:56:00.000000000 -6.202198246823168e+03 -3.289797050124012e+03  6.816294037950064e+02  1.493473206930410e-01  1.273881380797753e+00  7.409517812964935e+00
